NORAD_CAT_ID,OBJECT_NAME,OBJECT_TYPE,EPOCH,MEAN_MOTION,ECCENTRICITY,INCLINATION,RA_OF_ASC_NODE,ARG_OF_PERICENTER,MEAN_ANOMALY,BSTAR,MEAN_MOTION_DOT,MEAN_MOTION_DDOT,TLE_LINE0,TLE_LINE1,TLE_LINE2,SEMIMAJOR_AXIS,PERIOD,APOGEE,PERIGEE,DECAYED
51889.0,STARLINK-3547,PAYLOAD,2022-07-12 14:00:01,15.08816838,0.0002168,53.2173,237.128,33.0796,131.5898,0.0031193,0.00049675,0.0,0 STARLINK-3547,1 51889U 22022AP  22193.58334491  .00049675  00000-0  31193-2 0  9993,2 51889  53.2173 237.1280 0002168  33.0796 131.5898 15.08816838  1309,6917.951,95.439,541.316,538.316,0.0
51889.0,STARLINK-3547,PAYLOAD,2022-07-12 22:00:00,15.08832038,0.0001944,53.2171,235.63,36.2248,140.0417,0.001761,0.00027844,0.0,0 STARLINK-3547,1 51889U 22022AP  22193.91667824  .00027844  00000-0  17610-2 0  9991,2 51889  53.2171 235.6300 0001944  36.2248 140.0417 15.08832038  1303,6917.905,95.438,541.115,538.425,0.0
51889.0,STARLINK-3547,PAYLOAD,2022-07-13 14:00:01,15.08807065,0.0002117,53.2165,232.6391,31.886,167.5775,0.0026417,0.00041968,0.0,0 STARLINK-3547,1 51889U 22022AP  22194.58334491  .00041968  00000-0  26417-2 0  9994,2 51889  53.2165 232.6391 0002117  31.8860 167.5775 15.08807065  1300,6917.981,95.44,541.311,538.382,0.0
51889.0,STARLINK-3547,PAYLOAD,2022-07-13 22:00:00,15.08812264,0.0001912,53.2162,231.141,35.4595,175.5841,0.001981,0.00031357,0.0,0 STARLINK-3547,1 51889U 22022AP  22194.91667824  .00031357  00000-0  19810-2 0  9990,2 51889  53.2162 231.1410 0001912  35.4595 175.5841 15.08812264 21739,6917.965,95.439,541.153,538.507,0.0
51889.0,STARLINK-3547,PAYLOAD,2022-07-14 14:00:01,15.08818477,0.0002159,53.2157,228.1501,33.22,200.9845,0.0020094,0.00031818,0.0,0 STARLINK-3547,1 51889U 22022AP  22195.58334491  .00031818  00000-0  20094-2 0  9993,2 51889  53.2157 228.1501 0002159  33.2200 200.9845 15.08818477 21833,6917.946,95.439,541.305,538.318,0.0
51889.0,STARLINK-3547,PAYLOAD,2022-07-14 22:00:00,15.08815183,0.0001981,53.2157,226.6519,36.8916,208.9039,0.0022384,0.00035492,0.0,0 STARLINK-3547,1 51889U 22022AP  22195.91667824  .00035492  00000-0  22384-2 0  9995,2 51889  53.2157 226.6519 0001981  36.8916 208.9039 15.08815183  1304,6917.956,95.439,541.192,538.451,0.0
51889.0,STARLINK-3547,PAYLOAD,2022-07-15 06:00:00,15.08852044,0.0002092,53.2157,225.1565,37.7773,219.5971,-0.0015947,-0.00025587,0.0,0 STARLINK-3547,1 51889U 22022AP  22196.25001157 -.00025587  00000-0 -15947-2 0  9997,2 51889  53.2157 225.1565 0002092  37.7773 219.5971 15.08852044 21935,6917.844,95.437,541.156,538.261,0.0
51889.0,STARLINK-3547,PAYLOAD,2022-07-15 14:00:01,15.0883184,0.0002236,53.2155,223.6608,34.1518,234.8216,0.0014839,0.00023402,0.0,0 STARLINK-3547,1 51889U 22022AP  22196.58334491  .00023402  00000-0  14839-2 0  9994,2 51889  53.2155 223.6608 0002236  34.1518 234.8216 15.08831840  1304,6917.905,95.438,541.317,538.2230000000002,0.0
51889.0,STARLINK-3547,PAYLOAD,2022-07-15 22:00:00,15.0882225,0.0002078,53.2158,222.1625,38.1744,242.4041,0.002672,0.00042473,0.0,0 STARLINK-3547,1 51889U 22022AP  22196.91667824  .00042473  00000-0  26720-2 0  9991,2 51889  53.2158 222.1625 0002078  38.1744 242.4041 15.08822250 22038,6917.935,95.439,541.237,538.362,0.0
51889.0,STARLINK-3547,PAYLOAD,2022-07-16 14:00:01,15.08850311,0.0002291,53.2159,219.1712,33.5458,270.2311,-0.0017001999999999,-0.00027254,0.0,0 STARLINK-3547,1 51889U 22022AP  22197.58334491 -.00027254  00000-0 -17002-2 0  9991,2 51889  53.2159 219.1712 0002291  33.5458 270.2311 15.08850311 22139,6917.849,95.437,541.299,538.129,0.0
51889.0,STARLINK-3547,PAYLOAD,2022-07-16 22:00:00,15.0880447,0.0002104,53.2163,217.673,37.0055,278.3779,0.0029916,0.00047599,0.0,0 STARLINK-3547,1 51889U 22022AP  22197.91667824  .00047599  00000-0  29916-2 0  9996,2 51889  53.2163 217.6730 0002104  37.0055 278.3779 15.08804470  1300,6917.989000000001,95.44,541.31,538.398,0.0
51889.0,STARLINK-3547,PAYLOAD,2022-07-17 06:00:00,15.08845946,0.0002259,53.2167,216.1778,36.7357,290.2192,-0.0015172,-0.00024358,0.0,0 STARLINK-3547,1 51889U 22022AP  22198.25001157 -.00024358  00000-0 -15172-2 0  9994,2 51889  53.2167 216.1778 0002259  36.7357 290.2192 15.08845946 22232,6917.861999999999,95.437,541.29,538.164,0.0
51889.0,STARLINK-3547,PAYLOAD,2022-07-17 14:00:01,15.08837842,0.0002371,53.2166,214.6818,34.0954,304.4489,0.00038319,5.815e-05,0.0,0 STARLINK-3547,1 51889U 22022AP  22198.58334491  .00005815  00000-0  38319-3 0  9994,2 51889  53.2166 214.6818 0002371  34.0954 304.4489 15.08837842  1306,6917.887,95.438,541.3919999999998,538.112,0.0
51889.0,STARLINK-3547,PAYLOAD,2022-07-17 22:00:00,15.08813781,0.0002191,53.217,213.1838,38.7146,311.4285,0.0030515,0.00048577,0.0,0 STARLINK-3547,1 51889U 22022AP  22198.91667824  .00048577  00000-0  30515-2 0  9991,2 51889  53.2170 213.1838 0002191  38.7146 311.4285 15.08813781 22335,6917.9609999999975,95.439,541.341,538.31,0.0
51889.0,STARLINK-3547,PAYLOAD,2022-07-18 14:00:01,15.08857584,0.0002413,53.2172,210.1926,34.8771,338.4446,-0.0020233,-0.00032362,0.0,0 STARLINK-3547,1 51889U 22022AP  22199.58334491 -.00032362  00000-0 -20233-2 0  9999,2 51889  53.2172 210.1926 0002413  34.8771 338.4446 15.08857584 22449,6917.8269999999975,95.436,541.361,538.0219999999998,0.0
51889.0,STARLINK-3547,PAYLOAD,2022-07-18 22:00:00,15.0880114,0.0002177,53.2175,208.6947,38.6209,346.3151,0.0023335,0.00037006,0.0,0 STARLINK-3547,1 51889U 22022AP  22199.91667824  .00037006  00000-0  23335-2 0  9999,2 51889  53.2175 208.6947 0002177  38.6209 346.3151 15.08801140  1302,6917.999,95.44,541.37,538.3580000000002,0.0
51889.0,STARLINK-3547,PAYLOAD,2022-07-19 14:00:01,15.08834272,0.0002402,53.2174,205.7035,35.2459,12.8335,-0.00070413,-0.00011476,0.0,0 STARLINK-3547,1 51889U 22022AP  22200.58334491 -.00011476  00000-0 -70413-3 0  9991,2 51889  53.2174 205.7035 0002402  35.2459  12.8335 15.08834272 22593,6917.898,95.438,541.425,538.101,0.0
51889.0,STARLINK-3547,PAYLOAD,2022-07-19 22:00:00,15.08798305,0.000217,53.2175,204.2058,39.2263,20.4382,0.0039247,0.00062658,0.0,0 STARLINK-3547,1 51889U 22022AP  22200.91667824  .00062658  00000-0  39247-2 0  9992,2 51889  53.2175 204.2058 0002170  39.2263  20.4382 15.08798305  1301,6918.0080000000025,95.44,541.374,538.372,0.0
51889.0,STARLINK-3547,PAYLOAD,2022-07-20 14:00:01,15.0884897,0.0002407,53.2172,201.2147,37.5668,45.2745,-0.00095033,-0.00015385,0.0,0 STARLINK-3547,1 51889U 22022AP  22201.58334491 -.00015385  00000-0 -95033-3 0  9990,2 51889  53.2172 201.2147 0002407  37.5668  45.2745 15.08848970  1309,6917.853,95.437,541.383,538.053,0.0
51889.0,STARLINK-3547,PAYLOAD,2022-07-20 22:00:01,15.088220000000002,0.0002221,53.2172,199.7169,42.622,51.8848,0.0025428,0.00040394,0.0,0 STARLINK-3547,1 51889U 22022AP  22201.91668981  .00040394  00000-0  25428-2 0  9997,2 51889  53.2172 199.7169 0002221  42.6220  51.8848 15.08822000  1302,6917.935,95.439,541.337,538.264,0.0
51889.0,STARLINK-3547,PAYLOAD,2022-07-21 14:00:01,15.08856409,0.0002435,53.2167,196.7257,40.0605,77.6321,-0.0014088,-0.00022651,0.0,0 STARLINK-3547,1 51889U 22022AP  22202.58335648 -.00022651  00000-0 -14088-2 0  9990,2 51889  53.2167 196.7257 0002435  40.0605  77.6321 15.08856409 22896,6917.83,95.437,541.38,538.011,0.0
51889.0,STARLINK-3547,PAYLOAD,2022-07-21 22:00:00,15.08838305,0.000227,53.2167,195.2282,44.6601,84.5786,0.0011075,0.00017381,0.0,0 STARLINK-3547,1 51889U 22022AP  22202.91667824  .00017381  00000-0  11075-2 0  9996,2 51889  53.2167 195.2282 0002270  44.6601  84.5786 15.08838305  1301,6917.886,95.438,541.321,538.18,0.0
51889.0,STARLINK-3547,PAYLOAD,2022-07-22 06:00:00,15.08841199,0.0002417,53.2165,193.7335,41.328,99.5188,-0.0020412,-0.0003263,0.0,0 STARLINK-3547,1 51889U 22022AP  22203.25001157 -.00032630  00000-0 -20412-2 0  9996,2 51889  53.2165 193.7335 0002417  41.3280  99.5188 15.08841199  1308,6917.877,95.437,541.414,538.07,0.0
51889.0,STARLINK-3547,PAYLOAD,2022-07-22 12:00:00,15.08823167,0.0002443,53.2162,192.6114,38.5936,20.9413,0.00091875,0.00014358,0.0,0 STARLINK-3547,1 51889U 22022AP  22203.50001157  .00014358  00000-0  91875-3 0  9991,2 51889  53.2162 192.6114 0002443  38.5936  20.9413 15.08823167 23031,6917.932,95.439,541.487,538.107,0.0
51889.0,STARLINK-3547,PAYLOAD,2022-07-22 22:00:00,15.08819695,0.0002294,53.2162,190.7392,45.1879,118.8248,0.0019444,0.00030776,0.0,0 STARLINK-3547,1 51889U 22022AP  22203.91667824  .00030776  00000-0  19444-2 0  9998,2 51889  53.2162 190.7392 0002294  45.1879 118.8248 15.08819695  1302,6917.941999999999,95.439,541.394,538.22,0.0
51889.0,STARLINK-3547,PAYLOAD,2022-07-23 14:00:01,15.08853351,0.000249,53.216,187.7476,41.7247,145.5179,-0.0018727,-0.00029981,0.0,0 STARLINK-3547,1 51889U 22022AP  22204.58335648 -.00029981  00000-0 -18727-2 0  9999,2 51889  53.2160 187.7476 0002490  41.7247 145.5179 15.08853351 23196,6917.84,95.437,541.427,537.982,0.0
51889.0,STARLINK-3547,PAYLOAD,2022-07-23 22:00:00,15.08835198,0.0002401999999999,53.2162,186.2501,46.7128,152.0698,0.0018581,0.00029404,0.0,0 STARLINK-3547,1 51889U 22022AP  22204.91667824  .00029404  00000-0  18581-2 0  9996,2 51889  53.2162 186.2501 0002402  46.7128 152.0698 15.08835198  1304,6917.895,95.438,541.422,538.0980000000002,0.0
51889.0,STARLINK-3547,PAYLOAD,2022-07-24 06:00:00,15.08845679,0.0002614,53.2162,184.7555,43.4327,166.9529,2.7993e-05,1.57e-06,0.0,0 STARLINK-3547,1 51889U 22022AP  22205.25001157  .00000157  00000-0  27993-4 0  9998,2 51889  53.2162 184.7555 0002614  43.4327 166.9529 15.08845679 23290,6917.863,95.437,541.536,537.92,0.0
51889.0,STARLINK-3547,PAYLOAD,2022-07-24 14:00:01,15.08873335,0.0002528999999999,53.2163,183.2584,42.4253,179.5555,-0.0048411999999999,-0.00076592,0.0,0 STARLINK-3547,1 51889U 22022AP  22205.58334491 -.00076592  00000-0 -48412-2 0  9999,2 51889  53.2163 183.2584 0002529  42.4253 179.5555 15.08873335  1306,6917.778,95.435,541.393,537.894,0.0
